FENGYUN 1C DEB          
1 29766U 99025BG  17346.51892655  .00000422  00000-0  34645-3 0  9990
2 29766  98.7099  90.1511 0158867  45.7149  13.2624 13.88657446551883
